{"type": "FeatureCollection", "features": [ {"type": "Feature", "properties": {"norad_id": 32289, "name": "YAOGAN-3", "group": "resource", "lat": 37.008879634224314, "lon": 21.265527916229768, "alt_km": 594.9149931154243, "timestamp": "2025-12-26T17:24:54.374460+00:00", "meta": {"OBJECT_NAME": "YAOGAN-3", "OBJECT_ID": "2007-055A", "EPOCH": "2025-12-26T07:34:36.796224", "MEAN_MOTION": 14.89926493, "ECCENTRICITY": 0.00012665, "INCLINATION": 97.8357, "RA_OF_ASC_NODE": 26.8177, "ARG_OF_PERICENTER": 83.2474, "MEAN_ANOMALY": 276.8887, "EPHEMERIS_TYPE": 0, "CLASSIFICATION_TYPE": "U", "NORAD_CAT_ID": 32289, "ELEMENT_SET_NO": 999, "REV_AT_EPOCH": 98011, "BSTAR": 0.00043280614, "MEAN_MOTION_DOT": 4.111e-05, "MEAN_MOTION_DDOT": 0}, "tle": {"line1": "1 32289U 07055A   25360.31570366  .00004111  00000+0  43281-3 0  9995", "line2": "2 32289  97.8357  26.8177 0001266  83.2474 276.8887 14.89926493980119"}}, "geometry": {"type": "Point", "coordinates": [21.265527916229768, 37.008879634224314]}}, {"type": "Feature", "properties": {"norad_id": 32376, "name": "COSMO-SKYMED 2", "group": "resource", "lat": -70.78907390679223, "lon": -154.73912859183864, "alt_km": 630.6274056926031, "timestamp": "2025-12-26T17:24:54.374472+00:00", "meta": {"OBJECT_NAME": "COSMO-SKYMED 2", "OBJECT_ID": "2007-059A", "EPOCH": "2025-12-26T06:23:59.047296", "MEAN_MOTION": 14.82158914, "ECCENTRICITY": 0.00012999, "INCLINATION": 97.8806, "RA_OF_ASC_NODE": 181.3869, "ARG_OF_PERICENTER": 83.285, "MEAN_ANOMALY": 276.8511, "EPHEMERIS_TYPE": 0, "CLASSIFICATION_TYPE": "U", "NORAD_CAT_ID": 32376, "ELEMENT_SET_NO": 999, "REV_AT_EPOCH": 97638, "BSTAR": 7.3950201e-05, "MEAN_MOTION_DOT": 5.37e-06, "MEAN_MOTION_DDOT": 0}, "tle": {"line1": "1 32376U 07059A   25360.26665564  .00000537  00000+0  73950-4 0  9990", "line2": "2 32376  97.8806 181.3869 0001299  83.2850 276.8511 14.82158914976380"}}, "geometry": {"type": "Point", "coordinates": [-154.73912859183864, -70.78907390679223]}}, {"type": "Feature", "properties": {"norad_id": 32382, "name": "RADARSAT-2", "group": "resource", "lat": 45.00326927669229, "lon": -166.2034247328044, "alt_km": 787.3693479537969, "timestamp": "2025-12-26T17:24:54.374482+00:00", "meta": {"OBJECT_NAME": "RADARSAT-2", "OBJECT_ID": "2007-061A", "EPOCH": "2025-12-26T06:42:49.199904", "MEAN_MOTION": 14.29986053, "ECCENTRICITY": 0.00011399, "INCLINATION": 98.5799, "RA_OF_ASC_NODE": 4.6728, "ARG_OF_PERICENTER": 84.7361, "MEAN_ANOMALY": 275.3951, "EPHEMERIS_TYPE": 0, "CLASSIFICATION_TYPE": "U", "NORAD_CAT_ID": 32382, "ELEMENT_SET_NO": 999, "REV_AT_EPOCH": 94124, "BSTAR": 0.00014104138, "MEAN_MOTION_DOT": 3.2e-06, "MEAN_MOTION_DDOT": 0}, "tle": {"line1": "1 32382U 07061A   25360.27973611  .00000320  00000+0  14104-3 0  9991", "line2": "2 32382  98.5799   4.6728 0001139  84.7361 275.3951 14.29986053941246"}}, "geometry": {"type": "Point", "coordinates": [-166.2034247328044, 45.00326927669229]}}, {"type": "Feature", "properties": {"norad_id": 32783, "name": "CARTOSAT-2A", "group": "resource", "lat": -81.20246430671614, "lon": 167.90272618019108, "alt_km": 635.2871181610508, "timestamp": "2025-12-26T17:24:54.374493+00:00", "meta": {"OBJECT_NAME": "CARTOSAT-2A", "OBJECT_ID": "2008-021A", "EPOCH": "2025-12-26T06:28:22.677888", "MEAN_MOTION": 14.78955287, "ECCENTRICITY": 0.00108872, "INCLINATION": 97.7908, "RA_OF_ASC_NODE": 49.6691, "ARG_OF_PERICENTER": 319.5079, "MEAN_ANOMALY": 40.5322, "EPHEMERIS_TYPE": 0, "CLASSIFICATION_TYPE": "U", "NORAD_CAT_ID": 32783, "ELEMENT_SET_NO": 999, "REV_AT_EPOCH": 95324, "BSTAR": 0.00010078337, "MEAN_MOTION_DOT": 6.94e-06, "MEAN_MOTION_DDOT": 0}, "tle": {"line1": "1 32783U 08021A   25360.26970692  .00000694  00000+0  10078-3 0  9998", "line2": "2 32783  97.7908  49.6691 0010887 319.5079  40.5322 14.78955287953243"}}, "geometry": {"type": "Point", "coordinates": [167.90272618019108, -81.20246430671614]}}, {"type": "Feature", "properties": {"norad_id": 33320, "name": "HUANJING 1A (HJ-1A)", "group": "resource", "lat": -4.179958124955724, "lon": -10.99607836317858, "alt_km": 608.7613985360313, "timestamp": "2025-12-26T17:24:54.374504+00:00", "meta": {"OBJECT_NAME": "HUANJING 1A (HJ-1A)", "OBJECT_ID": "2008-041A", "EPOCH": "2025-12-26T06:06:07.221600", "MEAN_MOTION": 14.83436168, "ECCENTRICITY": 0.0019111, "INCLINATION": 97.6552, "RA_OF_ASC_NODE": 347.9889, "ARG_OF_PERICENTER": 351.1471, "MEAN_ANOMALY": 8.9404, "EPHEMERIS_TYPE": 0, "CLASSIFICATION_TYPE": "U", "NORAD_CAT_ID": 33320, "ELEMENT_SET_NO": 999, "REV_AT_EPOCH": 93276, "BSTAR": 0.00024534341, "MEAN_MOTION_DOT": 1.97e-05, "MEAN_MOTION_DDOT": 0}, "tle": {"line1": "1 33320U 08041A   25360.25425025  .00001970  00000+0  24534-3 0  9992", "line2": "2 33320  97.6552 347.9889 0019111 351.1471   8.9404 14.83436168932766"}}, "geometry": {"type": "Point", "coordinates": [-10.99607836317858, -4.179958124955724]}}, {"type": "Feature", "properties": {"norad_id": 33321, "name": "HUANJING 1B (HJ-1B)", "group": "resource", "lat": -8.207638790606023, "lon": 170.99149111230636, "alt_km": 648.5572309863173, "timestamp": "2025-12-26T17:24:54.374514+00:00", "meta": {"OBJECT_NAME": "HUANJING 1B (HJ-1B)", "OBJECT_ID": "2008-041B", "EPOCH": "2025-12-26T06:51:14.700384", "MEAN_MOTION": 14.8285969, "ECCENTRICITY": 0.00376757, "INCLINATION": 97.6411, "RA_OF_ASC_NODE": 351.6804, "ARG_OF_PERICENTER": 32.8549, "MEAN_ANOMALY": 327.4997, "EPHEMERIS_TYPE": 0, "CLASSIFICATION_TYPE": "U", "NORAD_CAT_ID": 33321, "ELEMENT_SET_NO": 999, "REV_AT_EPOCH": 93278, "BSTAR": 0.00028283849, "MEAN_MOTION_DOT": 2.267e-05, "MEAN_MOTION_DDOT": 0}, "tle": {"line1": "1 33321U 08041B   25360.28558681  .00002267  00000+0  28284-3 0  9997", "line2": "2 33321  97.6411 351.6804 0037675  32.8549 327.4997 14.82859690932780"}}, "geometry": {"type": "Point", "coordinates": [170.99149111230636, -8.207638790606023]}}, {"type": "Feature", "properties": {"norad_id": 33331, "name": "GEOEYE 1", "group": "resource", "lat": -15.800363751159225, "lon": 74.14542892204719, "alt_km": 683.8256685913702, "timestamp": "2025-12-26T17:24:54.374525+00:00", "meta": {"OBJECT_NAME": "GEOEYE 1", "OBJECT_ID": "2008-042A", "EPOCH": "2025-12-26T06:00:40.353120", "MEAN_MOTION": 14.6471812, "ECCENTRICITY": 0.0003054, "INCLINATION": 98.1236, "RA_OF_ASC_NODE": 71.3599, "ARG_OF_PERICENTER": 226.5737, "MEAN_ANOMALY": 133.5213, "EPHEMERIS_TYPE": 0, "CLASSIFICATION_TYPE": "U", "NORAD_CAT_ID": 33331, "ELEMENT_SET_NO": 999, "REV_AT_EPOCH": 92483, "BSTAR": 0.00012654682, "MEAN_MOTION_DOT": 6.26e-06, "MEAN_MOTION_DDOT": 0}, "tle": {"line1": "1 33331U 08042A   25360.25046705  .00000626  00000+0  12655-3 0  9997", "line2": "2 33331  98.1236  71.3599 0003054 226.5737 133.5213 14.64718120924830"}}, "geometry": {"type": "Point", "coordinates": [74.14542892204719, -15.800363751159225]}}, {"type": "Feature", "properties": {"norad_id": 33396, "name": "THEOS", "group": "resource", "lat": 61.30433335633132, "lon": -105.57991232417838, "alt_km": 818.2403853451287, "timestamp": "2025-12-26T17:24:54.374535+00:00", "meta": {"OBJECT_NAME": "THEOS", "OBJECT_ID": "2008-049A", "EPOCH": "2025-12-26T06:43:05.775744", "MEAN_MOTION": 14.20100284, "ECCENTRICITY": 0.0001203, "INCLINATION": 98.5844, "RA_OF_ASC_NODE": 57.9688, "ARG_OF_PERICENTER": 92.8623, "MEAN_ANOMALY": 267.2692, "EPHEMERIS_TYPE": 0, "CLASSIFICATION_TYPE": "U", "NORAD_CAT_ID": 33396, "ELEMENT_SET_NO": 999, "REV_AT_EPOCH": 89342, "BSTAR": 0.0001616864, "MEAN_MOTION_DOT": 3.02e-06, "MEAN_MOTION_DDOT": 0}, "tle": {"line1": "1 33396U 08049A   25360.27992796  .00000302  00000+0  16169-3 0  9992", "line2": "2 33396  98.5844  57.9688 0001203  92.8623 267.2692 14.20100284893425"}}, "geometry": {"type": "Point", "coordinates": [-105.57991232417838, 61.30433335633132]}}, {"type": "Feature", "properties": {"norad_id": 33412, "name": "COSMO-SKYMED 3", "group": "resource", "lat": 5.982203746547577, "lon": 32.18156751331685, "alt_km": 544.2390229677649, "timestamp": "2025-12-26T17:24:54.374546+00:00", "meta": {"OBJECT_NAME": "COSMO-SKYMED 3", "OBJECT_ID": "2008-054A", "EPOCH": "2025-12-26T07:04:32.084256", "MEAN_MOTION": 15.05468155, "ECCENTRICITY": 0.00171125, "INCLINATION": 97.8451, "RA_OF_ASC_NODE": 210.9158, "ARG_OF_PERICENTER": 128.0799, "MEAN_ANOMALY": 232.1974, "EPHEMERIS_TYPE": 0, "CLASSIFICATION_TYPE": "U", "NORAD_CAT_ID": 33412, "ELEMENT_SET_NO": 999, "REV_AT_EPOCH": 93091, "BSTAR": 0.00021560933, "MEAN_MOTION_DOT": 3.042e-05, "MEAN_MOTION_DDOT": 0}, "tle": {"line1": "1 33412U 08054A   25360.29481579  .00003042  00000+0  21561-3 0  9997", "line2": "2 33412  97.8451 210.9158 0017112 128.0799 232.1974 15.05468155930913"}}, "geometry": {"type": "Point", "coordinates": [32.18156751331685, 5.982203746547577]}}, {"type": "Feature", "properties": {"norad_id": 33446, "name": "YAOGAN-4", "group": "resource", "lat": 81.50515396690719, "lon": 179.4429111137956, "alt_km": 622.3624892556618, "timestamp": "2025-12-26T17:24:54.374557+00:00", "meta": {"OBJECT_NAME": "YAOGAN-4", "OBJECT_ID": "2008-061A", "EPOCH": "2025-12-26T05:39:31.954464", "MEAN_MOTION": 14.82721305, "ECCENTRICITY": 0.00129545, "INCLINATION": 97.9198, "RA_OF_ASC_NODE": 290.2038, "ARG_OF_PERICENTER": 275.3518, "MEAN_ANOMALY": 84.6217, "EPHEMERIS_TYPE": 0, "CLASSIFICATION_TYPE": "U", "NORAD_CAT_ID": 33446, "ELEMENT_SET_NO": 999, "REV_AT_EPOCH": 92003, "BSTAR": 0.00018765921, "MEAN_MOTION_DOT": 1.463e-05, "MEAN_MOTION_DDOT": 0}, "tle": {"line1": "1 33446U 08061A   25360.23578651  .00001463  00000+0  18766-3 0  9992", "line2": "2 33446  97.9198 290.2038 0012954 275.3518  84.6217 14.82721305920036"}}, "geometry": {"type": "Point", "coordinates": [179.4429111137956, 81.50515396690719]}}]}